LINGQIAO VIDEO A        
1 40959U 15057B   26158.54095113  .00000742  00000+0  11101-3 0  9994
2 40959  97.6623 153.8191 0015569 304.9547  55.0201 14.77379267573986
LINGQIAO VIDEO B        
1 40960U 15057C   26158.51831771  .00000817  00000+0  12126-3 0  9992
2 40960  97.6589 154.9639 0015720 305.1489  54.8249 14.77486876574025
JILIN-1                 
1 40961U 15057D   26158.33308782  .00001022  00000+0  14771-3 0  9991
2 40961  97.6506 158.1893 0015509 298.4094  61.5554 14.78144760574156
FOX-1A (AO-85)          
1 40967U 15058D   26157.62044007  .00003329  00000+0  30158-3 0  9995
2 40967  64.7764 311.8208 0129891  60.7292 300.6731 14.90916620111990
SINOD-D 1               
1 40968U 15058E   26158.11694669  .00004197  00000+0  33912-3 0  9991
2 40968  64.7760 290.4471 0118484  57.0968 304.1480 14.95839766115158
ELEKTRO-L 2             
1 41105U 15074A   26158.05735411 -.00000104  00000+0  00000+0 0  9990
2 41105   6.6683  70.6461 0001291 283.5448 267.4428  1.00272194 38407
DAMPE                   
1 41173U 15078A   26158.55923073  .00001353  00000+0  48022-4 0  9994
2 41173  97.4561 163.9795 0013624 106.4839 253.7900 15.30760326583079
ORBCOMM FM114           
1 41179U 15081A   26158.39034560  .00000579  00000+0  15870-3 0  9993
2 41179  47.0058  48.3219 0001912 164.9943 195.1000 14.58847401556323
ORBCOMM FM110           
1 41182U 15081D   26158.37887222  .00000842  00000+0  21433-3 0  9991
2 41182  47.0029  47.8183 0002922  20.9160 339.1845 14.58864970556195
ORBCOMM FM112           
1 41184U 15081F   26158.14391772  .00000684  00000+0  18077-3 0  9992
2 41184  47.0001 317.7383 0003078 173.0297 187.0632 14.58889255557482
ORBCOMM FM113           
1 41185U 15081G   26157.70931320  .00000567  00000+0  15623-3 0  9997
2 41185  47.0018 320.1644 0001652 181.5263 178.5618 14.58847509557409
ORBCOMM FM108           
1 41187U 15081J   26156.50751746  .00000700  00000+0  18440-3 0  9997
2 41187  47.0046 237.4186 0002310 171.2053 188.8874 14.58857926558377
ORBCOMM FM117           
1 41188U 15081K   26158.45912388  .00000625  00000+0  16854-3 0  9998
2 41188  47.0005 226.8283 0002951 182.2940 177.7932 14.58857481558706
ORBCOMM FM116           
1 41189U 15081L   26158.16572054  .00000835  00000+0  21284-3 0  9995
2 41189  47.0034 318.0050 0001126   0.2552 359.8334 14.58868481557470
HORYU-4                 
1 41340U 16012D   26158.28323697  .00308228  00000+0  10049-2 0  9992
2 41340  30.9849 151.3730 0002759 206.2539 153.7981 15.88791967569237
ZIYUAN 3-02 (ZY 3-02)   
1 41556U 16033A   26158.52158924  .00005738  00000+0  25846-3 0  9992
2 41556  97.3832 234.4806 0011696 328.1226  31.9301 15.21388569556516
CARTOSAT-2C             
1 41599U 16040A   26158.51028745  .00006204  00000+0  29725-3 0  9992
2 41599  97.4482 218.6212 0009624 162.1324 198.0251 15.19244337552249
LAPAN-A3                
1 41603U 16040E   26158.53108374  .00003626  00000+0  11575-3 0  9996
2 41603  97.1490 154.9947 0011847  56.9581 303.2798 15.33043689553333
GAOFEN-3                
1 41727U 16049A   26158.50980478  .00000122  00000+0  50345-4 0  9999
2 41727  98.4014 166.4423 0001197  98.0342 262.0983 14.42214626517251
CAS-2T & KS-1Q          
1 41847U 16066G   26158.19760566  .00002042  00000+0  29345-3 0  9998
2 41847  98.3816 234.0479 0342426 159.7048 201.8144 14.44661881503354
YUNHAI-1 01             
1 41857U 16068A   26158.52871758  .00000360  00000+0  14855-3 0  9995
2 41857  98.5834 169.6261 0006498  66.2412 293.9453 14.32698938500444
RESOURCESAT-2A          
1 41877U 16074A   26158.49881922 -.00000103  00000+0 -26994-4 0  9999
2 41877  98.7522 232.0823 0003340 101.4712 258.6840 14.21612695492924
TANSAT                  
1 41898U 16081A   26158.51641308  .00000621  00000+0  13970-3 0  9997
2 41898  98.5367 158.4888 0020305 343.1636  16.8887 14.59943762503217
JILIN-1 03              
1 41914U 17002B   26158.28841708  .00013317  00000+0  32109-3 0  9991
2 41914  97.1952 165.5143 0005486 186.2268 173.8912 15.41333103520333
CARTOSAT-2D             
1 41948U 17008A   26158.47665781  .00005280  00000+0  25361-3 0  9992
2 41948  97.4111 217.9634 0003486 277.5278  82.5561 15.19262570516100
